[{"OBJECT_NAME":"ICEYE-X31","OBJECT_ID":"2023-174AJ","EPOCH":"2026-03-09T23:06:20.433600","MEAN_MOTION":15.30950809,"ECCENTRICITY":0.00015021,"INCLINATION":97.3851,"RA_OF_ASC_NODE":144.9524,"ARG_OF_PERICENTER":332.6589,"MEAN_ANOMALY":27.4572,"EPHEMERIS_TYPE":0,"CLASSIFICATION_TYPE":"U","NORAD_CAT_ID":58288,"ELEMENT_SET_NO":999,"REV_AT_EPOCH":12955,"BSTAR":0.00066288467,"MEAN_MOTION_DOT":0.00019777,"MEAN_MOTION_DDOT":0},{"OBJECT_NAME":"STARLINK-35319","OBJECT_ID":"2025-216K","EPOCH":"2026-03-09T22:04:51.570912","MEAN_MOTION":15.30218816,"ECCENTRICITY":0.00014025,"INCLINATION":53.1603,"RA_OF_ASC_NODE":331.4815,"ARG_OF_PERICENTER":81.3129,"MEAN_ANOMALY":278.8031,"EPHEMERIS_TYPE":0,"CLASSIFICATION_TYPE":"U","NORAD_CAT_ID":65743,"ELEMENT_SET_NO":999,"REV_AT_EPOCH":2663,"BSTAR":0.00099170095,"MEAN_MOTION_DOT":0.00029145,"MEAN_MOTION_DDOT":0}]
